{
  "type": "FeatureCollection",
  "features": [
    {
      "type": "Feature",
      "properties": {
        "norad_id": 43823,
        "name": "GEO-KOMPSAT-2A",
        "group": "weather",
        "lat": -0.009671772716949712,
        "lon": -82.53981178183453,
        "alt_km": 35788.09324249061,
        "timestamp": "2025-12-21T03:56:50.501395+00:00",
        "meta_object_name": "GEO-KOMPSAT-2A",
        "meta_object_id": "2018-100A",
        "meta_epoch": "2025-12-20T20:37:55.768800",
        "meta_mean_motion": 1.00271051,
        "meta_eccentricity": 4.17e-05,
        "meta_inclination": 0.0519,
        "meta_ra_of_asc_node": 137.247,
        "meta_arg_of_pericenter": 326.1436,
        "meta_mean_anomaly": 64.0502,
        "meta_ephemeris_type": 0,
        "meta_classification_type": "U",
        "meta_norad_cat_id": 43823,
        "meta_element_set_no": 999,
        "meta_rev_at_epoch": 2584,
        "meta_bstar": 0,
        "meta_mean_motion_dot": -3.2e-06,
        "meta_mean_motion_ddot": 0,
        "tle_line1": "1 43823U 18100A   25354.85967325 -.00000320  00000+0  00000+0 0  9998",
        "tle_line2": "2 43823   0.0519 137.2470 0000417 326.1436  64.0502  1.00271051 25841"
      },
      "geometry": {
        "type": "Point",
        "coordinates": [
          -82.53981178183453,
          -0.009671772716949712
        ]
      }
    },
    {
      "type": "Feature",
      "properties": {
        "norad_id": 44387,
        "name": "METEOR-M2 2",
        "group": "weather",
        "lat": -11.82980069476906,
        "lon": -23.123536618175894,
        "alt_km": 816.1265580223399,
        "timestamp": "2025-12-21T03:56:50.501406+00:00",
        "meta_object_name": "METEOR-M2 2",
        "meta_object_id": "2019-038A",
        "meta_epoch": "2025-12-20T21:15:34.148160",
        "meta_mean_motion": 14.24293694,
        "meta_eccentricity": 0.0001632,
        "meta_inclination": 98.8972,
        "meta_ra_of_asc_node": 334.7142,
        "meta_arg_of_pericenter": 132.0374,
        "meta_mean_anomaly": 228.0943,
        "meta_ephemeris_type": 0,
        "meta_classification_type": "U",
        "meta_norad_cat_id": 44387,
        "meta_element_set_no": 999,
        "meta_rev_at_epoch": 33591,
        "meta_bstar": -7.8629e-05,
        "meta_mean_motion_dot": -2.27e-06,
        "meta_mean_motion_ddot": 0,
        "tle_line1": "1 44387U 19038A   25354.88581190 -.00000227  00000+0 -78629-4 0  9994",
        "tle_line2": "2 44387  98.8972 334.7142 0001632 132.0374 228.0943 14.24293694335910"
      },
      "geometry": {
        "type": "Point",
        "coordinates": [
          -23.123536618175894,
          -11.82980069476906
        ]
      }
    },
    {
      "type": "Feature",
      "properties": {
        "norad_id": 47719,
        "name": "ARKTIKA-M 1",
        "group": "weather",
        "lat": 55.79302797927573,
        "lon": 130.917022011942,
        "alt_km": 32535.96266941352,
        "timestamp": "2025-12-21T03:56:50.501418+00:00",
        "meta_object_name": "ARKTIKA-M 1",
        "meta_object_id": "2021-016A",
        "meta_epoch": "2025-12-20T01:15:32.338368",
        "meta_mean_motion": 2.00630446,
        "meta_eccentricity": 0.72079263,
        "meta_inclination": 63.1764,
        "meta_ra_of_asc_node": 82.997,
        "meta_arg_of_pericenter": 269.153,
        "meta_mean_anomaly": 15.5565,
        "meta_ephemeris_type": 0,
        "meta_classification_type": "U",
        "meta_norad_cat_id": 47719,
        "meta_element_set_no": 999,
        "meta_rev_at_epoch": 3519,
        "meta_bstar": 0,
        "meta_mean_motion_dot": -1.14e-06,
        "meta_mean_motion_ddot": 0,
        "tle_line1": "1 47719U 21016A   25354.05245762 -.00000114  00000+0  00000+0 0  9993",
        "tle_line2": "2 47719  63.1764  82.9970 7207926 269.1530  15.5565  2.00630446 35191"
      },
      "geometry": {
        "type": "Point",
        "coordinates": [
          130.917022011942,
          55.79302797927573
        ]
      }
    },
    {
      "type": "Feature",
      "properties": {
        "norad_id": 49008,
        "name": "FENGYUN 3E",
        "group": "weather",
        "lat": 6.148688439029124,
        "lon": 176.53585095914914,
        "alt_km": 827.3476404814237,
        "timestamp": "2025-12-21T03:56:50.501429+00:00",
        "meta_object_name": "FENGYUN 3E",
        "meta_object_id": "2021-062A",
        "meta_epoch": "2025-12-20T22:03:29.959200",
        "meta_mean_motion": 14.19881096,
        "meta_eccentricity": 8e-05,
        "meta_inclination": 98.7468,
        "meta_ra_of_asc_node": 355.3431,
        "meta_arg_of_pericenter": 207.2867,
        "meta_mean_anomaly": 152.8267,
        "meta_ephemeris_type": 0,
        "meta_classification_type": "U",
        "meta_norad_cat_id": 49008,
        "meta_element_set_no": 999,
        "meta_rev_at_epoch": 23128,
        "meta_bstar": 4.9148e-05,
        "meta_mean_motion_dot": 6e-07,
        "meta_mean_motion_ddot": 0,
        "tle_line1": "1 49008U 21062A   25354.91909675  .00000060  00000+0  49148-4 0  9992",
        "tle_line2": "2 49008  98.7468 355.3431 0000800 207.2867 152.8267 14.19881096231283"
      },
      "geometry": {
        "type": "Point",
        "coordinates": [
          176.53585095914914,
          6.148688439029124
        ]
      }
    },
    {
      "type": "Feature",
      "properties": {
        "norad_id": 51850,
        "name": "GOES 18",
        "group": "weather",
        "lat": -0.0014573501182548949,
        "lon": 12.207980792587732,
        "alt_km": 35783.96241296459,
        "timestamp": "2025-12-21T03:56:50.501439+00:00",
        "meta_object_name": "GOES 18",
        "meta_object_id": "2022-021A",
        "meta_epoch": "2025-12-20T17:42:56.250720",
        "meta_mean_motion": 1.00273162,
        "meta_eccentricity": 4.93e-05,
        "meta_inclination": 0.0209,
        "meta_ra_of_asc_node": 179.1955,
        "meta_arg_of_pericenter": 158.0343,
        "meta_mean_anomaly": 241.0852,
        "meta_ephemeris_type": 0,
        "meta_classification_type": "U",
        "meta_norad_cat_id": 51850,
        "meta_element_set_no": 999,
        "meta_rev_at_epoch": 480,
        "meta_bstar": 0,
        "meta_mean_motion_dot": 1.2e-06,
        "meta_mean_motion_ddot": 0,
        "tle_line1": "1 51850U 22021A   25354.73815105  .00000120  00000+0  00000+0 0  9996",
        "tle_line2": "2 51850   0.0209 179.1955 0000493 158.0343 241.0852  1.00273162  4805"
      },
      "geometry": {
        "type": "Point",
        "coordinates": [
          12.207980792587732,
          -0.0014573501182548949
        ]
      }
    },
    {
      "type": "Feature",
      "properties": {
        "norad_id": 54234,
        "name": "NOAA 21 (JPSS-2)",
        "group": "weather",
        "lat": 10.43369327796775,
        "lon": 112.99245914197327,
        "alt_km": 829.5609633099075,
        "timestamp": "2025-12-21T03:56:50.501449+00:00",
        "meta_object_name": "NOAA 21 (JPSS-2)",
        "meta_object_id": "2022-150A",
        "meta_epoch": "2025-12-20T18:41:38.535936",
        "meta_mean_motion": 14.19526185,
        "meta_eccentricity": 0.0001866,
        "meta_inclination": 98.7473,
        "meta_ra_of_asc_node": 290.9871,
        "meta_arg_of_pericenter": 21.8279,
        "meta_mean_anomaly": 338.2976,
        "meta_ephemeris_type": 0,
        "meta_classification_type": "U",
        "meta_norad_cat_id": 54234,
        "meta_element_set_no": 999,
        "meta_rev_at_epoch": 16123,
        "meta_bstar": 4.2754e-05,
        "meta_mean_motion_dot": 4.6e-07,
        "meta_mean_motion_ddot": 0,
        "tle_line1": "1 54234U 22150A   25354.77891824  .00000046  00000+0  42754-4 0  9998",
        "tle_line2": "2 54234  98.7473 290.9871 0001866  21.8279 338.2976 14.19526185161237"
      },
      "geometry": {
        "type": "Point",
        "coordinates": [
          112.99245914197327,
          10.43369327796775
        ]
      }
    },
    {
      "type": "Feature",
      "properties": {
        "norad_id": 54743,
        "name": "METEOSAT-12 (MTG-I1)",
        "group": "weather",
        "lat": 0.5908017955665885,
        "lon": 148.86680387321715,
        "alt_km": 35789.087902692096,
        "timestamp": "2025-12-21T03:56:50.501459+00:00",
        "meta_object_name": "METEOSAT-12 (MTG-I1)",
        "meta_object_id": "2022-170C",
        "meta_epoch": "2025-12-20T18:21:52.523136",
        "meta_mean_motion": 1.00270608,
        "meta_eccentricity": 0.0001481,
        "meta_inclination": 0.695,
        "meta_ra_of_asc_node": 24.9233,
        "meta_arg_of_pericenter": 240.0583,
        "meta_mean_anomaly": 99.7732,
        "meta_ephemeris_type": 0,
        "meta_classification_type": "U",
        "meta_norad_cat_id": 54743,
        "meta_element_set_no": 999,
        "meta_rev_at_epoch": 1118,
        "meta_bstar": 0,
        "meta_mean_motion_dot": 1.6e-07,
        "meta_mean_motion_ddot": 0,
        "tle_line1": "1 54743U 22170C   25354.76519124  .00000016  00000+0  00000+0 0  9994",
        "tle_line2": "2 54743   0.6950  24.9233 0001481 240.0583  99.7732  1.00270608 11186"
      },
      "geometry": {
        "type": "Point",
        "coordinates": [
          148.86680387321715,
          0.5908017955665885
        ]
      }
    }
  ]
}